{
  "links" : {
    "next" : "https://api.nasa.gov/neo/rest/v1/feed?start_date=1999-02-23&end_date=1999-02-23&detailed=true&api_key=t0TVs3DtDT2H8Oy2Zy8m2eVrNsAVKAexjcZXUckd",
    "prev" : "https://api.nasa.gov/neo/rest/v1/feed?start_date=1999-02-21&end_date=1999-02-21&detailed=true&api_key=t0TVs3DtDT2H8Oy2Zy8m2eVrNsAVKAexjcZXUckd",
    "self" : "https://api.nasa.gov/neo/rest/v1/feed?start_date=1999-02-22&end_date=1999-02-22&detailed=true&api_key=t0TVs3DtDT2H8Oy2Zy8m2eVrNsAVKAexjcZXUckd"
  },
  "element_count" : 7,
  "near_earth_objects" : {
    "1999-02-22" : [ {
      "links" : {
        "self" : "https://api.nasa.gov/neo/rest/v1/neo/2422638?api_key=t0TVs3DtDT2H8Oy2Zy8m2eVrNsAVKAexjcZXUckd"
      },
      "neo_reference_id" : "2422638",
      "name" : "422638 (1994 CB)",
      "nasa_jpl_url" : "http://ssd.jpl.nasa.gov/sbdb.cgi?sstr=2422638",
      "absolute_magnitude_h" : 21.2,
      "estimated_diameter" : {
        "kilometers" : {
          "estimated_diameter_min" : 0.1529519353,
          "estimated_diameter_max" : 0.3420109247
        },
        "meters" : {
          "estimated_diameter_min" : 152.9519353442,
          "estimated_diameter_max" : 342.0109247198
        },
        "miles" : {
          "estimated_diameter_min" : 0.095039897,
          "estimated_diameter_max" : 0.2125156703
        },
        "feet" : {
          "estimated_diameter_min" : 501.8108275547,
          "estimated_diameter_max" : 1122.0831222578
        }
      },
      "is_potentially_hazardous_asteroid" : false,
      "close_approach_data" : [ {
        "close_approach_date" : "1999-02-22",
        "epoch_date_close_approach" : 919670400000,
        "relative_velocity" : {
          "kilometers_per_second" : "15.9580943713",
          "kilometers_per_hour" : "57449.1397366044",
          "miles_per_hour" : "35696.661299114"
        },
        "miss_distance" : {
          "astronomical" : "0.388445182",
          "lunar" : "151.1051635742",
          "kilometers" : "58110572",
          "miles" : "36108236"
        },
        "orbiting_body" : "Earth"
      } ],
      "orbital_data" : {
        "orbit_id" : "25",
        "orbit_determination_date" : "2017-04-06 09:21:07",
        "orbit_uncertainty" : "0",
        "minimum_orbit_intersection" : ".0556687",
        "jupiter_tisserand_invariant" : "5.410",
        "epoch_osculation" : "2458000.5",
        "eccentricity" : ".1451309405172579",
        "semi_major_axis" : "1.149414942978972",
        "inclination" : "18.25518724690086",
        "ascending_node_longitude" : "310.6557244508031",
        "orbital_period" : "450.1048423228413",
        "perihelion_distance" : ".9825992712598438",
        "perihelion_argument" : "288.519815048702",
        "aphelion_distance" : "1.316230614698101",
        "perihelion_time" : "2458047.098534261181",
        "mean_anomaly" : "322.7298558987891",
        "mean_motion" : ".7998136570630074",
        "equinox" : "J2000"
      }
    }, {
      "links" : {
        "self" : "https://api.nasa.gov/neo/rest/v1/neo/3404494?api_key=t0TVs3DtDT2H8Oy2Zy8m2eVrNsAVKAexjcZXUckd"
      },
      "neo_reference_id" : "3404494",
      "name" : "(2008 DY22)",
      "nasa_jpl_url" : "http://ssd.jpl.nasa.gov/sbdb.cgi?sstr=3404494",
      "absolute_magnitude_h" : 24.2,
      "estimated_diameter" : {
        "kilometers" : {
          "estimated_diameter_min" : 0.0384197891,
          "estimated_diameter_max" : 0.0859092601
        },
        "meters" : {
          "estimated_diameter_min" : 38.4197891064,
          "estimated_diameter_max" : 85.9092601232
        },
        "miles" : {
          "estimated_diameter_min" : 0.0238729428,
          "estimated_diameter_max" : 0.0533815229
        },
        "feet" : {
          "estimated_diameter_min" : 126.0491808919,
          "estimated_diameter_max" : 281.8545369825
        }
      },
      "is_potentially_hazardous_asteroid" : false,
      "close_approach_data" : [ {
        "close_approach_date" : "1999-02-22",
        "epoch_date_close_approach" : 919670400000,
        "relative_velocity" : {
          "kilometers_per_second" : "16.8072833204",
          "kilometers_per_hour" : "60506.2199533752",
          "miles_per_hour" : "37596.2120593625"
        },
        "miss_distance" : {
          "astronomical" : "0.3736088262",
          "lunar" : "145.3338317871",
          "kilometers" : "55891084",
          "miles" : "34729112"
        },
        "orbiting_body" : "Earth"
      } ],
      "orbital_data" : {
        "orbit_id" : "8",
        "orbit_determination_date" : "2017-04-06 09:04:13",
        "orbit_uncertainty" : "7",
        "minimum_orbit_intersection" : ".0167652",
        "jupiter_tisserand_invariant" : "7.072",
        "epoch_osculation" : "2458000.5",
        "eccentricity" : ".2266972491165049",
        "semi_major_axis" : ".820587651728144",
        "inclination" : "19.1602708720139",
        "ascending_node_longitude" : "342.5796511691266",
        "orbital_period" : "271.5100395088535",
        "perihelion_distance" : ".6345626884224012",
        "perihelion_argument" : ".4588367303851765",
        "aphelion_distance" : "1.006612615033887",
        "perihelion_time" : "2457923.391714768520",
        "mean_anomaly" : "102.2392495450527",
        "mean_motion" : "1.325917821128161",
        "equinox" : "J2000"
      }
    }, {
      "links" : {
        "self" : "https://api.nasa.gov/neo/rest/v1/neo/3599931?api_key=t0TVs3DtDT2H8Oy2Zy8m2eVrNsAVKAexjcZXUckd"
      },
      "neo_reference_id" : "3599931",
      "name" : "(2012 DV32)",
      "nasa_jpl_url" : "http://ssd.jpl.nasa.gov/sbdb.cgi?sstr=3599931",
      "absolute_magnitude_h" : 21.8,
      "estimated_diameter" : {
        "kilometers" : {
          "estimated_diameter_min" : 0.1160259082,
          "estimated_diameter_max" : 0.2594418179
        },
        "meters" : {
          "estimated_diameter_min" : 116.0259082094,
          "estimated_diameter_max" : 259.4418179074
        },
        "miles" : {
          "estimated_diameter_min" : 0.0720951346,
          "estimated_diameter_max" : 0.1612096218
        },
        "feet" : {
          "estimated_diameter_min" : 380.6624406898,
          "estimated_diameter_max" : 851.1870938635
        }
      },
      "is_potentially_hazardous_asteroid" : false,
      "close_approach_data" : [ {
        "close_approach_date" : "1999-02-22",
        "epoch_date_close_approach" : 919670400000,
        "relative_velocity" : {
          "kilometers_per_second" : "7.2977744285",
          "kilometers_per_hour" : "26271.9879427519",
          "miles_per_hour" : "16324.391619206"
        },
        "miss_distance" : {
          "astronomical" : "0.2053453234",
          "lunar" : "79.8793258667",
          "kilometers" : "30719222",
          "miles" : "19088040"
        },
        "orbiting_body" : "Earth"
      } ],
      "orbital_data" : {
        "orbit_id" : "21",
        "orbit_determination_date" : "2017-04-06 08:50:46",
        "orbit_uncertainty" : "5",
        "minimum_orbit_intersection" : ".181799",
        "jupiter_tisserand_invariant" : "4.461",
        "epoch_osculation" : "2458000.5",
        "eccentricity" : ".2351549342449119",
        "semi_major_axis" : "1.510910775100498",
        "inclination" : "13.89665165215933",
        "ascending_node_longitude" : "155.7903008979134",
        "orbital_period" : "678.3544127373751",
        "perihelion_distance" : "1.155612651131811",
        "perihelion_argument" : "335.470701201404",
        "aphelion_distance" : "1.866208899069185",
        "perihelion_time" : "2457986.061710353877",
        "mean_anomaly" : "7.662343127731262",
        "mean_motion" : ".5306960391800001",
        "equinox" : "J2000"
      }
    } ]
  }
}